CORVUS BC1              
1 42847U 17042Y   24019.50025482  .00004812  00000+0  42932-3 0  9998
2 42847  97.3734 213.4663 0007544 192.6345 167.4690 14.96376775355062
VRSS-2                  
1 42954U 17060A   24020.15287935  .00001646  00000+0  23477-3 0  9998
2 42954  97.7776  81.6900 0019664  85.5143 274.8314 14.77928004338459
MOHAMMED VI-A           
1 43005U 17070A   24020.12375181  .00001502  00000+0  21984-3 0  9997
2 43005  97.9576  94.0678 0001299  88.7434 271.3925 14.77103399334212
FENGYUN 3D              
1 43010U 17072A   24020.06594682  .00000233  00000+0  13245-3 0  9998
2 43010  98.8917 334.0164 0002375  59.8257 300.3153 14.19270313320265
CZ-4C R/B               
1 43012U 17072C   24020.15163722  .00000694  00000+0  15009-3 0  9998
2 43012  98.6194  88.8630 0125373 336.3469  23.1995 14.57055000328545
NOAA 20                 
1 43013U 17073A   24020.07351409  .00000165  00000+0  98922-4 0  9991
2 43013  98.7352 320.2668 0000712 114.2879 245.8372 14.19535098319746
MIRATA                  
1 43015U 17073C   24019.63506202  .00024011  00000+0  12910-2 0  9993
2 43015  97.6083 266.7928 0192483  49.0879 312.6835 15.00285463333856
MAKERSAT 0              
1 43016U 17073D   24019.64659411  .00012729  00000+0  77996-3 0  9995
2 43016  97.6039 263.1079 0211540  64.2108 298.0772 14.93476353333562
RADFXSAT (FOX-1B)       
1 43017U 17073E   24019.66169780  .00009224  00000+0  60107-3 0  9995
2 43017  97.6009 260.6058 0222547  72.2934 290.2442 14.89941991333371
EAGLESAT 1              
1 43018U 17073F   24020.15464069  .00020908  00000+0  11586-2 0  9998
2 43018  97.6083 267.4986 0194323  50.5990 311.2261 14.99072757333717
JILIN-1 04              
1 43022U 17074A   24020.15791631  .00008393  00000+0  41772-3 0  9997
2 43022  97.4922 113.2236 0008102  75.1704 285.0426 15.17826009339909
JILIN-1 05              
1 43023U 17074B   24020.17144556  .00008233  00000+0  40828-3 0  9992
2 43023  97.4942 113.7005 0008425  88.2961 271.9238 15.17954106339915
JILIN-1 06              
1 43024U 17074C   24020.17051048  .00005304  00000+0  27866-3 0  9999
2 43024  97.4938 112.9878 0011281  91.9687 268.2838 15.16068939339879
IRIDIUM 116             
1 43072U 17083C   24019.92234209  .00000477  00000+0  16335-3 0  9990
2 43072  86.3992 329.4873 0002180  91.1718 268.9728 14.34222187318142
IRIDIUM 130             
1 43073U 17083D   24019.96040693 -.00000097  00000+0 -41690-4 0  9990
2 43073  86.3998 329.6612 0001921  81.7911 278.3502 14.34216668318090
LKW-2                   
1 43080U 17084A   24020.13839420  .00011383  00000+0  47387-3 0  9990
2 43080  97.2468  85.9944 0012024 124.8419 235.3951 15.23835831337820
SUPERVIEW-1 03          
1 43099U 18002A   24020.16944615  .00018705  00000+0  65836-3 0  9991
2 43099  97.3906 100.8869 0003251 217.0710 143.0306 15.29369138333791
SUPERVIEW-1 04          
1 43100U 18002B   24020.18154477  .00019919  00000+0  68989-3 0  9995
2 43100  97.3925 101.2556 0001675 102.0425 258.1003 15.29883595333809
CARTOSAT-2F             
1 43111U 18004A   24020.12232962  .00008209  00000+0  39302-3 0  9996
2 43111  97.4549  81.8135 0002248 130.9953 229.1476 15.19208363333864
CARBONITE 2             
1 43115U 18004E   24020.11986315  .00016508  00000+0  46530-3 0  9999
2 43115  97.2898  92.1761 0008773  93.0210 267.2039 15.36460959335014
CORVUS BC3              
1 43118U 18004H   24019.75922645  .00070590  00000+0  10418-2 0  9992
2 43118  97.3040 100.7651 0005337  65.1679 295.0130 15.55116695335481
ARKYD 6A                
1 43130U 18004V   24019.79634871  .00352792  00000+0  14498-2 0  9990
2 43130  97.2981 109.1981 0003175 340.6588  19.4561 15.85093025335980
CNUSAIL-1               
1 43133U 18004Y   24019.74613034  .00154487  00000+0  12276-2 0  9999
2 43133  97.3027 106.6894 0002644  36.3069 323.8372 15.70765426335823
FOX-1D (AO-92)          
1 43137U 18004AC  24019.95839342  .00576886  14066-3  14363-2 0  9999
2 43137  97.2917 110.9979 0003561 317.5997  42.5003 15.95827210336115
LKW-3                   
1 43146U 18006A   24020.11211046  .00013890  00000+0  59065-3 0  9995
2 43146  97.5485 153.5093 0000682 166.1019 194.0236 15.23144317334606
ASNARO-2                
1 43152U 18007A   24020.07850411  .00015471  00000+0  67211-3 0  9992
2 43152  97.4187  28.7709 0001870  93.1297 267.0153 15.22385363333666
XIAOXIANG-2             
1 43155U 18008A   24020.16217394  .00046701  00000+0  12241-2 0  9995
2 43155  97.2668  73.7995 0008285 254.7768 105.2561 15.38502005331859
ZHOU ENLAI              
1 43156U 18008B   24020.11771344  .00054822  00000+0  13192-2 0  9990
2 43156  97.2711  74.4318 0006291 255.2808 104.7742 15.41089067331804
KIPP                    
1 43157U 18008C   24019.71376273  .00100832  00000+0  19081-2 0  9993
2 43157  97.2753  75.7844 0005568 256.6502 103.4128 15.48005447331789
QUANTUTONG 1            
1 43158U 18008D   24020.09689498  .00036031  00000+0  11161-2 0  9993
2 43158  97.2778  69.8497 0007073 265.1890  94.8545 15.33336581331532
JILIN-1 07              
1 43159U 18008E   24020.12797864  .00007730  00000+0  39918-3 0  9990
2 43159  97.2665  59.5625 0010426 297.3728  62.6444 15.16524873330961
JILIN-1 08              
1 43160U 18008F   24020.11547358  .00007889  00000+0  41018-3 0  9991
2 43160  97.2670  59.3179 0007321 315.6995  44.3651 15.16298858330958
LEMUR-2-URAMCHANSOL     
1 43183U 18014D   24019.69755656  .00014663  00000+0  89505-3 0  9997
2 43183  97.6003 285.0339 0014770 127.5972 232.6601 15.10320851326241
LEMUR-2-KADI            
1 43184U 18014E   24019.70714824  .00013332  00000+0  84633-3 0  9991
2 43184  97.5866 283.7310 0013730 116.1841 244.0801 15.08924893326192
S-NET D                 
1 43186U 18014G   24019.71227220  .00006005  00000+0  45467-3 0  9994
2 43186  97.6048 284.2981 0012201 141.0818 219.1288 15.02603163326044
S-NET B                 
1 43187U 18014H   24019.71395714  .00006025  00000+0  45611-3 0  9992
2 43187  97.6059 284.2375 0013341 137.8445 222.3809 15.02599609326043
S-NET A                 
1 43188U 18014J   24019.71353829  .00006004  00000+0  45451-3 0  9993
2 43188  97.6062 284.3388 0013123 138.3223 221.9005 15.02605311326042
S-NET C                 
1 43189U 18014K   24019.71634501  .00006152  00000+0  46526-3 0  9991
2 43189  97.6083 284.2573 0015337 133.2696 226.9811 15.02603898324594
GOMX-4B                 
1 43196U 18015E   24019.92949558  .00041592  00000+0  79913-3 0  9997
2 43196  97.5947 184.2297 0010353 140.4126 219.7882 15.47779171332339
GOMX-4A                 
1 43197U 18015F   24020.13514870  .00047922  00000+0  76567-3 0  9993
2 43197  97.5907 187.9049 0009582 130.6458 229.5629 15.52986427332600
PAZ                     
1 43215U 18020A   24020.09501629  .00004304  00000+0  20795-3 0  9992
2 43215  97.4449  29.0938 0001656  90.0674 270.0751 15.19165544327554
GOES 17                 
1 43226U 18022A   24019.97897829 -.00000086  00000+0  00000+0 0  9998
2 43226   0.0291 179.8867 0001899  96.4480  90.2623  1.00271473 21601
LKW-4                   
1 43236U 18025A   24019.94196929  .00013027  00000+0  55386-3 0  9991
2 43236  97.5361 151.3576 0000873 218.9999 141.1175 15.23163250324988
ZHUHAI-1 OHS-01         
1 43439U 18040A   24020.14553504  .00028496  00000+0  73258-3 0  9997
2 43439  97.1583  69.6467 0009948 120.8028 239.4199 15.39185898318542
ZHUHAI-1 OVS-02         
1 43440U 18040B   24020.10249216  .00026457  00000+0  70148-3 0  9997
2 43440  97.1626  69.8152 0008933 132.3802 227.8201 15.38260988318533
ZHUHAI-1 OHS-02         
1 43441U 18040C   24020.13713370  .00027411  00000+0  71108-3 0  9996
2 43441  97.1748  73.2626 0008918 145.7397 214.4426 15.38927591318557
ZHUHAI-1 OHS-04         
1 43443U 18040E   24020.12904945  .00032151  00000+0  82357-3 0  9992
2 43443  97.1638  70.8216 0005790 116.0032 244.1811 15.39306238318555
GAOFEN-6                
1 43484U 18048A   24020.15067679  .00001579  00000+0  23356-3 0  9996
2 43484  97.8799  98.3056 0011407 131.0400 229.1798 14.76522613303671
LUOJIA-1 01             
1 43485U 18048B   24020.15353972  .00003646  00000+0  48641-3 0  9992
2 43485  97.8889 101.5262 0011789 114.2174 246.0272 14.80158710303811
PAKTES 1A               
1 43529U 18056A   24020.08294680  .00004765  00000+0  48127-3 0  9994
2 43529  98.0178 139.4861 0025544 139.1726 221.1411 14.91302780300526
PRSS 1                  
1 43530U 18056B   24020.14075659  .00001695  00000+0  23815-3 0  9992
2 43530  97.8809  97.8431 0001431  80.6167 279.5206 14.78667947298365
HAIYANG-1C              
1 43609U 18068A   24020.16186967  .00000286  00000+0  11713-3 0  9998
2 43609  98.3910  89.2948 0010853 182.6682 177.4448 14.34206095281093
SSTL S1-4               
1 43618U 18071A   24020.10597342  .00002817  00000+0  26342-3 0  9995
2 43618  97.6236 271.0089 0006263 209.9994 150.0869 14.94884744291535
HAIYANG-2B              
1 43655U 18081A   24020.13777354  .00000026  00000+0  68426-4 0  9993
2 43655  99.3395  30.7531 0001894  86.9204 273.2164 13.79305753263743
CZ-4B R/B               
1 43656U 18081B   24019.49897067  .00000801  00000+0  25936-3 0  9994
2 43656  99.4502 212.8588 0206065 276.5729  81.2032 14.31067395273441
CFOSAT                  
1 43662U 18083A   24020.20961876  .00006783  00000+0  35267-3 0  9997
2 43662  97.3854  38.8203 0002692 147.6276 212.5122 15.16375020289324
2018-083B               
1 43663U 18083B   24020.11288692  .00037104  00000+0  90050-3 0  9998
2 43663  97.3547  51.0826 0008012  75.2963 284.9171 15.40908798290165
2018-083C               
1 43664U 18083C   24020.10610970  .00021685  00000+0  65674-3 0  9997
2 43664  97.3626  46.7804 0010139  83.2274 277.0122 15.34132119290010
2018-083D               
1 43665U 18083D   24020.10490984  .00022829  00000+0  67881-3 0  9992
2 43665  97.3625  47.6031 0011189  83.3529 276.8987 15.34690934290056
